{ 
   "FENGYUN 1C DEB_1649": {
      "TLEs": [
         [
            "1999-025.txt", 
            [
               "1 31957U 99025CNJ 17236.31883630  .00000631  00000-0  23609-3 0  9994", 
               "2 29733  99.2284   8.0413 0581831 315.6574  93.9111 12.91279539499502"
            ]
         ]
      ], 
      "name": "FENGYUN 1C DEB_1649"
   }, 
   "FENGYUN 1C DEB_165": {
      "TLEs": [
         [
            "1999-025.txt", 
            [
               "1 29935U 99025JH  17237.15883300  .00000026  00000-0  32433-4 0  9998", 
               "2 29733  99.2284   8.0413 0581831 315.6574  93.9111 12.91279539499502"
            ]
         ]
      ], 
      "name": "FENGYUN 1C DEB_165"
   }, 
   "FENGYUN 1C DEB_1650": {
      "TLEs": [
         [
            "1999-025.txt", 
            [
               "1 31958U 99025CNK 17237.06464169  .00008117  00000-0  77571-3 0  9994", 
               "2 29733  99.2284   8.0413 0581831 315.6574  93.9111 12.91279539499502"
            ]
         ]
      ], 
      "name": "FENGYUN 1C DEB_1650"
   }, 
   "FENGYUN 1C DEB_1651": {
      "TLEs": [
         [
            "1999-025.txt", 
            [
               "1 31959U 99025CNL 17233.47438062  .00001068  00000-0  53359-3 0  9995", 
               "2 29733  99.2284   8.0413 0581831 315.6574  93.9111 12.91279539499502"
            ]
         ]
      ], 
      "name": "FENGYUN 1C DEB_1651"
   }, 
   "FENGYUN 1C DEB_1652": {
      "TLEs": [
         [
            "1999-025.txt", 
            [
               "1 31960U 99025CNM 17222.79686991  .00000384  00000-0  30366-3 0  9999", 
               "2 29733  99.2284   8.0413 0581831 315.6574  93.9111 12.91279539499502"
            ]
         ]
      ], 
      "name": "FENGYUN 1C DEB_1652"
   }, 
   "FENGYUN 1C DEB_1653": {
      "TLEs": [
         [
            "1999-025.txt", 
            [
               "1 31963U 99025CNQ 17237.15576235  .00001979  00000-0  98538-3 0  9993", 
               "2 29733  99.2284   8.0413 0581831 315.6574  93.9111 12.91279539499502"
            ]
         ]
      ], 
      "name": "FENGYUN 1C DEB_1653"
   }, 
   "FENGYUN 1C DEB_1654": {
      "TLEs": [
         [
            "1999-025.txt", 
            [
               "1 31964U 99025CNR 17236.96392965  .00000901  00000-0  38885-3 0  9991", 
               "2 29733  99.2284   8.0413 0581831 315.6574  93.9111 12.91279539499502"
            ]
         ]
      ], 
      "name": "FENGYUN 1C DEB_1654"
   }, 
   "FENGYUN 1C DEB_1655": {
      "TLEs": [
         [
            "1999-025.txt", 
            [
               "1 31965U 99025CNS 17236.43878781  .00001044  00000-0  53250-3 0  9991", 
               "2 29733  99.2284   8.0413 0581831 315.6574  93.9111 12.91279539499502"
            ]
         ]
      ], 
      "name": "FENGYUN 1C DEB_1655"
   }, 
   "FENGYUN 1C DEB_1656": {
      "TLEs": [
         [
            "1999-025.txt", 
            [
               "1 31966U 99025CNT 17237.47461142  .00000393  00000-0  11485-3 0  9996", 
               "2 29733  99.2284   8.0413 0581831 315.6574  93.9111 12.91279539499502"
            ]
         ]
      ], 
      "name": "FENGYUN 1C DEB_1656"
   }, 
   "FENGYUN 1C DEB_1657": {
      "TLEs": [
         [
            "1999-025.txt", 
            [
               "1 31971U 99025CNY 17236.36579001  .00001442  00000-0  60623-3 0  9997", 
               "2 29733  99.2284   8.0413 0581831 315.6574  93.9111 12.91279539499502"
            ]
         ]
      ], 
      "name": "FENGYUN 1C DEB_1657"
   }, 
   "FENGYUN 1C DEB_1658": {
      "TLEs": [
         [
            "1999-025.txt", 
            [
               "1 31972U 99025CNZ 17235.05975959  .00000038  00000-0  49259-4 0  9998", 
               "2 29733  99.2284   8.0413 0581831 315.6574  93.9111 12.91279539499502"
            ]
         ]
      ], 
      "name": "FENGYUN 1C DEB_1658"
   }, 
   "FENGYUN 1C DEB_1659": {
      "TLEs": [
         [
            "1999-025.txt", 
            [
               "1 31973U 99025CPA 17234.44308608  .00000087  00000-0  64367-4 0  9993", 
               "2 29733  99.2284   8.0413 0581831 315.6574  93.9111 12.91279539499502"
            ]
         ]
      ], 
      "name": "FENGYUN 1C DEB_1659"
   }, 
   "FENGYUN 1C DEB_166": {
      "TLEs": [
         [
            "1999-025.txt", 
            [
               "1 29936U 99025JJ  17236.81081522  .00000032  00000-0  26243-4 0  9996", 
               "2 29733  99.2284   8.0413 0581831 315.6574  93.9111 12.91279539499502"
            ]
         ]
      ], 
      "name": "FENGYUN 1C DEB_166"
   }, 
   "FENGYUN 1C DEB_1660": {
      "TLEs": [
         [
            "1999-025.txt", 
            [
               "1 31974U 99025CPB 17236.85900119  .00000703  00000-0  40361-3 0  9998", 
               "2 29733  99.2284   8.0413 0581831 315.6574  93.9111 12.91279539499502"
            ]
         ]
      ], 
      "name": "FENGYUN 1C DEB_1660"
   }, 
   "FENGYUN 1C DEB_1661": {
      "TLEs": [
         [
            "1999-025.txt", 
            [
               "1 31976U 99025CPD 17235.89979826  .00001402  00000-0  44800-3 0  9993", 
               "2 29733  99.2284   8.0413 0581831 315.6574  93.9111 12.91279539499502"
            ]
         ]
      ], 
      "name": "FENGYUN 1C DEB_1661"
   }, 
   "FENGYUN 1C DEB_1662": {
      "TLEs": [
         [
            "1999-025.txt", 
            [
               "1 31977U 99025CPE 17237.31043288  .00000580  00000-0  49449-3 0  9997", 
               "2 29733  99.2284   8.0413 0581831 315.6574  93.9111 12.91279539499502"
            ]
         ]
      ], 
      "name": "FENGYUN 1C DEB_1662"
   }, 
   "FENGYUN 1C DEB_1663": {
      "TLEs": [
         [
            "1999-025.txt", 
            [
               "1 31978U 99025CPF 17235.31196105  .00000252  00000-0  30974-3 0  9992", 
               "2 29733  99.2284   8.0413 0581831 315.6574  93.9111 12.91279539499502"
            ]
         ]
      ], 
      "name": "FENGYUN 1C DEB_1663"
   }, 
   "FENGYUN 1C DEB_1664": {
      "TLEs": [
         [
            "1999-025.txt", 
            [
               "1 31979U 99025CPG 17227.32716079  .00000613  00000-0  70536-3 0  9992", 
               "2 29733  99.2284   8.0413 0581831 315.6574  93.9111 12.91279539499502"
            ]
         ]
      ], 
      "name": "FENGYUN 1C DEB_1664"
   }, 
   "FENGYUN 1C DEB_1665": {
      "TLEs": [
         [
            "1999-025.txt", 
            [
               "1 31980U 99025CPH 17237.54115571  .00000251  00000-0  36241-3 0  9992", 
               "2 29733  99.2284   8.0413 0581831 315.6574  93.9111 12.91279539499502"
            ]
         ]
      ], 
      "name": "FENGYUN 1C DEB_1665"
   }, 
   "FENGYUN 1C DEB_1666": {
      "TLEs": [
         [
            "1999-025.txt", 
            [
               "1 31981U 99025CPJ 17230.97719519  .00000824  00000-0  11611-2 0  9994", 
               "2 29733  99.2284   8.0413 0581831 315.6574  93.9111 12.91279539499502"
            ]
         ]
      ], 
      "name": "FENGYUN 1C DEB_1666"
   }, 
   "FENGYUN 1C DEB_1667": {
      "TLEs": [
         [
            "1999-025.txt", 
            [
               "1 31982U 99025CPK 17237.47410274  .00003675  00000-0  25365-3 0  9992", 
               "2 29733  99.2284   8.0413 0581831 315.6574  93.9111 12.91279539499502"
            ]
         ]
      ], 
      "name": "FENGYUN 1C DEB_1667"
   }, 
   "FENGYUN 1C DEB_1668": {
      "TLEs": [
         [
            "1999-025.txt", 
            [
               "1 31983U 99025CPL 17235.13811708  .00001767  00000-0  95776-4 0  9995", 
               "2 29733  99.2284   8.0413 0581831 315.6574  93.9111 12.91279539499502"
            ]
         ]
      ], 
      "name": "FENGYUN 1C DEB_1668"
   }, 
   "FENGYUN 1C DEB_1669": {
      "TLEs": [
         [
            "1999-025.txt", 
            [
               "1 31984U 99025CPM 17236.89865807  .00000123  00000-0  78295-4 0  9991", 
               "2 29733  99.2284   8.0413 0581831 315.6574  93.9111 12.91279539499502"
            ]
         ]
      ], 
      "name": "FENGYUN 1C DEB_1669"
   }, 
   "FENGYUN 1C DEB_167": {
      "TLEs": [
         [
            "1999-025.txt", 
            [
               "1 29937U 99025JK  17237.01303948 -.00000254  00000-0 -13204-3 0  9999", 
               "2 29733  99.2284   8.0413 0581831 315.6574  93.9111 12.91279539499502"
            ]
         ]
      ], 
      "name": "FENGYUN 1C DEB_167"
   }, 
   "FENGYUN 1C DEB_1670": {
      "TLEs": [
         [
            "1999-025.txt", 
            [
               "1 31985U 99025CPN 17237.02839256  .00000125  00000-0  69138-4 0  9995", 
               "2 29733  99.2284   8.0413 0581831 315.6574  93.9111 12.91279539499502"
            ]
         ]
      ], 
      "name": "FENGYUN 1C DEB_1670"
   }, 
   "FENGYUN 1C DEB_1671": {
      "TLEs": [
         [
            "1999-025.txt", 
            [
               "1 31986U 99025CPP 17237.24909420  .00000080  00000-0  68309-4 0  9990", 
               "2 29733  99.2284   8.0413 0581831 315.6574  93.9111 12.91279539499502"
            ]
         ]
      ], 
      "name": "FENGYUN 1C DEB_1671"
   }, 
   "FENGYUN 1C DEB_1672": {
      "TLEs": [
         [
            "1999-025.txt", 
            [
               "1 31987U 99025CPQ 17235.40456683  .00000416  00000-0  17581-3 0  9993", 
               "2 29733  99.2284   8.0413 0581831 315.6574  93.9111 12.91279539499502"
            ]
         ]
      ], 
      "name": "FENGYUN 1C DEB_1672"
   }, 
   "FENGYUN 1C DEB_1673": {
      "TLEs": [
         [
            "1999-025.txt", 
            [
               "1 31988U 99025CPR 17237.11291197  .00000708  00000-0  46241-3 0  9990", 
               "2 29733  99.2284   8.0413 0581831 315.6574  93.9111 12.91279539499502"
            ]
         ]
      ], 
      "name": "FENGYUN 1C DEB_1673"
   }
}